25117,ORBCOMM FM05,1997,99.8,45.0,-,45.02,Inactive,1,LEO,Eastern Range Airspace,ORBCOMM,Commercial,Communications,Pegasus,1 25117U 97084F   24145.87180436  .00003366  00000+0  10416-2 0  9998,2 25117  45.0154  68.0673 0002613  52.8024 307.3064 14.42827603384465,14.42827603,0.0002613,LEO
25119,ORBCOMM FM07,1997,99.81,45.0,-,45.01,Inactive,1,LEO,Eastern Range Airspace,ORBCOMM,Commercial,Communications,Pegasus,1 25119U 97084H   24146.51467569  .00002774  00000+0  86642-3 0  9994,2 25119  45.0144  65.7017 0003355  51.2965 308.8185 14.42800460385488,14.4280046,0.0003355,LEO
25158,ORBCOMM FM03,1998,100.54,-1.0,-,107.97,Inactive,0,LEO,USA,ORBCOMM,Unknown,Unknown,Taurus,1 25158U 98007B   24145.69821792  .00001995  00000+0  77734-3 0  9999,2 25158 107.9712  58.7818 0047352 208.9355 150.9156 14.32246187368372,14.32246187,0.0047352,LEO
25413,ORBCOMM FM17,1998,100.47,-1.0,-,44.99,Inactive,0,LEO,Eastern Range Airspace,ORBCOMM,Unknown,Unknown,Pegasus,1 25413U 98046A   24145.50317000  .00002227  00000+0  85342-3 0  9991,2 25413  44.9947 289.3703 0001300 102.1697 257.9294 14.33229848347541,14.33229848,0.00013,LEO
25414,ORBCOMM FM18,1998,100.28,45.0,-,44.99,Inactive,1,LEO,Eastern Range Airspace,ORBCOMM,Commercial,Communications,Pegasus,1 25414U 98046B   24146.44448265  .00002041  00000+0  74402-3 0  9993,2 25414  44.9919 211.7165 0003192 161.4991 198.5972 14.36014095348631,14.36014095,0.0003192,LEO
25118,ORBCOMM FM06,1997,99.8,45.0,+,45.01,Active,1,LEO,Eastern Range Airspace,ORBCOMM,Commercial,Communications,Pegasus,1 25118U 97084G   24145.92167616  .00003870  00000+0  11897-2 0  9994,2 25118  45.0148  67.9902 0001716  55.5474  60.2034 14.42881916385408,14.42881916,0.0001716,LEO
25159,ORBCOMM FM04,1998,100.52,45.0,+,107.97,Active,1,LEO,USA,ORBCOMM,Commercial,Communications,Taurus,1 25159U 98007C   24146.52220827  .00001793  00000+0  70142-3 0  9997,2 25159 107.9693  63.4148 0042785 205.4232 154.4801 14.32515297368772,14.32515297,0.0042785,LEO
25415,ORBCOMM FM19,1998,100.29,45.0,+,44.99,Active,1,LEO,Eastern Range Airspace,ORBCOMM,Commercial,Communications,Pegasus,1 25415U 98046C   24145.95811962  .00002215  00000+0  80603-3 0  9990,2 25415  44.9928 215.4469 0001847 166.8477   3.0918 14.35850761348551,14.35850761,0.0001847,LEO
