<?xml version="1.0" encoding="UTF-8"?>
<ndm xmlns:xsi="http://www.w3.org/2001/XMLSchema-instance" xsi:noNamespaceSchemaLocation="https://sanaregistry.org/r/ndmxml_unqualified/ndmxml-2.0.0-master-2.0.xsd">
<omm id="CCSDS_OMM_VERS" version="2.0">
<header><CREATION_DATE/><ORIGINATOR/></header><body><segment><metadata><OBJECT_NAME>ORBCOMM FM05</OBJECT_NAME><OBJECT_ID>1997-084F</OBJECT_ID><CENTER_NAME>EARTH</CENTER_NAME><REF_FRAME>TEME</REF_FRAME><TIME_SYSTEM>UTC</TIME_SYSTEM><MEAN_ELEMENT_THEORY>SGP4</MEAN_ELEMENT_THEORY></metadata><data><meanElements><EPOCH>2024-05-24T20:55:23.896704</EPOCH><MEAN_MOTION>14.42827603</MEAN_MOTION><ECCENTRICITY>.0002613</ECCENTRICITY><INCLINATION>45.0154</INCLINATION><RA_OF_ASC_NODE>68.0673</RA_OF_ASC_NODE><ARG_OF_PERICENTER>52.8024</ARG_OF_PERICENTER><MEAN_ANOMALY>307.3064</MEAN_ANOMALY></meanElements><tleParameters><EPHEMERIS_TYPE>0</EPHEMERIS_TYPE><CLASSIFICATION_TYPE>U</CLASSIFICATION_TYPE><NORAD_CAT_ID>25117</NORAD_CAT_ID><ELEMENT_SET_NO>999</ELEMENT_SET_NO><REV_AT_EPOCH>38446</REV_AT_EPOCH><BSTAR>.10416E-2</BSTAR><MEAN_MOTION_DOT>.3366E-4</MEAN_MOTION_DOT><MEAN_MOTION_DDOT>0</MEAN_MOTION_DDOT></tleParameters></data></segment></body></omm>
<omm id="CCSDS_OMM_VERS" version="2.0">
<header><CREATION_DATE/><ORIGINATOR/></header><body><segment><metadata><OBJECT_NAME>ORBCOMM FM06</OBJECT_NAME><OBJECT_ID>1997-084G</OBJECT_ID><CENTER_NAME>EARTH</CENTER_NAME><REF_FRAME>TEME</REF_FRAME><TIME_SYSTEM>UTC</TIME_SYSTEM><MEAN_ELEMENT_THEORY>SGP4</MEAN_ELEMENT_THEORY></metadata><data><meanElements><EPOCH>2024-05-24T22:07:12.820224</EPOCH><MEAN_MOTION>14.42881916</MEAN_MOTION><ECCENTRICITY>.0001716</ECCENTRICITY><INCLINATION>45.0148</INCLINATION><RA_OF_ASC_NODE>67.9902</RA_OF_ASC_NODE><ARG_OF_PERICENTER>55.5474</ARG_OF_PERICENTER><MEAN_ANOMALY>60.2034</MEAN_ANOMALY></meanElements><tleParameters><EPHEMERIS_TYPE>0</EPHEMERIS_TYPE><CLASSIFICATION_TYPE>U</CLASSIFICATION_TYPE><NORAD_CAT_ID>25118</NORAD_CAT_ID><ELEMENT_SET_NO>999</ELEMENT_SET_NO><REV_AT_EPOCH>38540</REV_AT_EPOCH><BSTAR>.11897E-2</BSTAR><MEAN_MOTION_DOT>.387E-4</MEAN_MOTION_DOT><MEAN_MOTION_DDOT>0</MEAN_MOTION_DDOT></tleParameters></data></segment></body></omm>
<omm id="CCSDS_OMM_VERS" version="2.0">
<header><CREATION_DATE/><ORIGINATOR/></header><body><segment><metadata><OBJECT_NAME>ORBCOMM FM07</OBJECT_NAME><OBJECT_ID>1997-084H</OBJECT_ID><CENTER_NAME>EARTH</CENTER_NAME><REF_FRAME>TEME</REF_FRAME><TIME_SYSTEM>UTC</TIME_SYSTEM><MEAN_ELEMENT_THEORY>SGP4</MEAN_ELEMENT_THEORY></metadata><data><meanElements><EPOCH>2024-05-25T12:21:07.979616</EPOCH><MEAN_MOTION>14.42800460</MEAN_MOTION><ECCENTRICITY>.0003355</ECCENTRICITY><INCLINATION>45.0144</INCLINATION><RA_OF_ASC_NODE>65.7017</RA_OF_ASC_NODE><ARG_OF_PERICENTER>51.2965</ARG_OF_PERICENTER><MEAN_ANOMALY>308.8185</MEAN_ANOMALY></meanElements><tleParameters><EPHEMERIS_TYPE>0</EPHEMERIS_TYPE><CLASSIFICATION_TYPE>U</CLASSIFICATION_TYPE><NORAD_CAT_ID>25119</NORAD_CAT_ID><ELEMENT_SET_NO>999</ELEMENT_SET_NO><REV_AT_EPOCH>38548</REV_AT_EPOCH><BSTAR>.86642E-3</BSTAR><MEAN_MOTION_DOT>.2774E-4</MEAN_MOTION_DOT><MEAN_MOTION_DDOT>0</MEAN_MOTION_DDOT></tleParameters></data></segment></body></omm>
<omm id="CCSDS_OMM_VERS" version="2.0">
<header><CREATION_DATE/><ORIGINATOR/></header><body><segment><metadata><OBJECT_NAME>ORBCOMM FM03</OBJECT_NAME><OBJECT_ID>1998-007B</OBJECT_ID><CENTER_NAME>EARTH</CENTER_NAME><REF_FRAME>TEME</REF_FRAME><TIME_SYSTEM>UTC</TIME_SYSTEM><MEAN_ELEMENT_THEORY>SGP4</MEAN_ELEMENT_THEORY></metadata><data><meanElements><EPOCH>2024-05-24T16:45:26.028288</EPOCH><MEAN_MOTION>14.32246187</MEAN_MOTION><ECCENTRICITY>.0047352</ECCENTRICITY><INCLINATION>107.9712</INCLINATION><RA_OF_ASC_NODE>58.7818</RA_OF_ASC_NODE><ARG_OF_PERICENTER>208.9355</ARG_OF_PERICENTER><MEAN_ANOMALY>150.9156</MEAN_ANOMALY></meanElements><tleParameters><EPHEMERIS_TYPE>0</EPHEMERIS_TYPE><CLASSIFICATION_TYPE>U</CLASSIFICATION_TYPE><NORAD_CAT_ID>25158</NORAD_CAT_ID><ELEMENT_SET_NO>999</ELEMENT_SET_NO><REV_AT_EPOCH>36837</REV_AT_EPOCH><BSTAR>.77734E-3</BSTAR><MEAN_MOTION_DOT>.1995E-4</MEAN_MOTION_DOT><MEAN_MOTION_DDOT>0</MEAN_MOTION_DDOT></tleParameters></data></segment></body></omm>
<omm id="CCSDS_OMM_VERS" version="2.0">
<header><CREATION_DATE/><ORIGINATOR/></header><body><segment><metadata><OBJECT_NAME>ORBCOMM FM04</OBJECT_NAME><OBJECT_ID>1998-007C</OBJECT_ID><CENTER_NAME>EARTH</CENTER_NAME><REF_FRAME>TEME</REF_FRAME><TIME_SYSTEM>UTC</TIME_SYSTEM><MEAN_ELEMENT_THEORY>SGP4</MEAN_ELEMENT_THEORY></metadata><data><meanElements><EPOCH>2024-05-25T12:31:58.794528</EPOCH><MEAN_MOTION>14.32515297</MEAN_MOTION><ECCENTRICITY>.0042785</ECCENTRICITY><INCLINATION>107.9693</INCLINATION><RA_OF_ASC_NODE>63.4148</RA_OF_ASC_NODE><ARG_OF_PERICENTER>205.4232</ARG_OF_PERICENTER><MEAN_ANOMALY>154.4801</MEAN_ANOMALY></meanElements><tleParameters><EPHEMERIS_TYPE>0</EPHEMERIS_TYPE><CLASSIFICATION_TYPE>U</CLASSIFICATION_TYPE><NORAD_CAT_ID>25159</NORAD_CAT_ID><ELEMENT_SET_NO>999</ELEMENT_SET_NO><REV_AT_EPOCH>36877</REV_AT_EPOCH><BSTAR>.70142E-3</BSTAR><MEAN_MOTION_DOT>.1793E-4</MEAN_MOTION_DOT><MEAN_MOTION_DDOT>0</MEAN_MOTION_DDOT></tleParameters></data></segment></body></omm>
<omm id="CCSDS_OMM_VERS" version="2.0">
<header><CREATION_DATE/><ORIGINATOR/></header><body><segment><metadata><OBJECT_NAME>ORBCOMM FM17</OBJECT_NAME><OBJECT_ID>1998-046A</OBJECT_ID><CENTER_NAME>EARTH</CENTER_NAME><REF_FRAME>TEME</REF_FRAME><TIME_SYSTEM>UTC</TIME_SYSTEM><MEAN_ELEMENT_THEORY>SGP4</MEAN_ELEMENT_THEORY></metadata><data><meanElements><EPOCH>2024-05-24T12:04:33.888000</EPOCH><MEAN_MOTION>14.33229848</MEAN_MOTION><ECCENTRICITY>.00013</ECCENTRICITY><INCLINATION>44.9947</INCLINATION><RA_OF_ASC_NODE>289.3703</RA_OF_ASC_NODE><ARG_OF_PERICENTER>102.1697</ARG_OF_PERICENTER><MEAN_ANOMALY>257.9294</MEAN_ANOMALY></meanElements><tleParameters><EPHEMERIS_TYPE>0</EPHEMERIS_TYPE><CLASSIFICATION_TYPE>U</CLASSIFICATION_TYPE><NORAD_CAT_ID>25413</NORAD_CAT_ID><ELEMENT_SET_NO>999</ELEMENT_SET_NO><REV_AT_EPOCH>34754</REV_AT_EPOCH><BSTAR>.85342E-3</BSTAR><MEAN_MOTION_DOT>.2227E-4</MEAN_MOTION_DOT><MEAN_MOTION_DDOT>0</MEAN_MOTION_DDOT></tleParameters></data></segment></body></omm>
<omm id="CCSDS_OMM_VERS" version="2.0">
<header><CREATION_DATE/><ORIGINATOR/></header><body><segment><metadata><OBJECT_NAME>ORBCOMM FM18</OBJECT_NAME><OBJECT_ID>1998-046B</OBJECT_ID><CENTER_NAME>EARTH</CENTER_NAME><REF_FRAME>TEME</REF_FRAME><TIME_SYSTEM>UTC</TIME_SYSTEM><MEAN_ELEMENT_THEORY>SGP4</MEAN_ELEMENT_THEORY></metadata><data><meanElements><EPOCH>2024-05-25T10:40:03.300960</EPOCH><MEAN_MOTION>14.36014095</MEAN_MOTION><ECCENTRICITY>.0003192</ECCENTRICITY><INCLINATION>44.9919</INCLINATION><RA_OF_ASC_NODE>211.7165</RA_OF_ASC_NODE><ARG_OF_PERICENTER>161.4991</ARG_OF_PERICENTER><MEAN_ANOMALY>198.5972</MEAN_ANOMALY></meanElements><tleParameters><EPHEMERIS_TYPE>0</EPHEMERIS_TYPE><CLASSIFICATION_TYPE>U</CLASSIFICATION_TYPE><NORAD_CAT_ID>25414</NORAD_CAT_ID><ELEMENT_SET_NO>999</ELEMENT_SET_NO><REV_AT_EPOCH>34863</REV_AT_EPOCH><BSTAR>.74402E-3</BSTAR><MEAN_MOTION_DOT>.2041E-4</MEAN_MOTION_DOT><MEAN_MOTION_DDOT>0</MEAN_MOTION_DDOT></tleParameters></data></segment></body></omm>
<omm id="CCSDS_OMM_VERS" version="2.0">
<header><CREATION_DATE/><ORIGINATOR/></header><body><segment><metadata><OBJECT_NAME>ORBCOMM FM19</OBJECT_NAME><OBJECT_ID>1998-046C</OBJECT_ID><CENTER_NAME>EARTH</CENTER_NAME><REF_FRAME>TEME</REF_FRAME><TIME_SYSTEM>UTC</TIME_SYSTEM><MEAN_ELEMENT_THEORY>SGP4</MEAN_ELEMENT_THEORY></metadata><data><meanElements><EPOCH>2024-05-24T22:59:41.535168</EPOCH><MEAN_MOTION>14.35850761</MEAN_MOTION><ECCENTRICITY>.0001847</ECCENTRICITY><INCLINATION>44.9928</INCLINATION><RA_OF_ASC_NODE>215.4469</RA_OF_ASC_NODE><ARG_OF_PERICENTER>166.8477</ARG_OF_PERICENTER><MEAN_ANOMALY>3.0918</MEAN_ANOMALY></meanElements><tleParameters><EPHEMERIS_TYPE>0</EPHEMERIS_TYPE><CLASSIFICATION_TYPE>U</CLASSIFICATION_TYPE><NORAD_CAT_ID>25415</NORAD_CAT_ID><ELEMENT_SET_NO>999</ELEMENT_SET_NO><REV_AT_EPOCH>34855</REV_AT_EPOCH><BSTAR>.80603E-3</BSTAR><MEAN_MOTION_DOT>.2215E-4</MEAN_MOTION_DOT><MEAN_MOTION_DDOT>0</MEAN_MOTION_DDOT></tleParameters></data></segment></body></omm>

</ndm>
